COSMOS 2426 (717)       
1 29671U 06062B   19203.53084321 -.00000009  00000-0  10000-3 0  9994
2 29671  65.1074 279.0993 0018807 168.6327 169.7635  2.13102983 97840
COSMOS 2433 (720)       
1 32275U 07052A   19203.57126794 -.00000039  00000-0  10000-3 0  9996
2 32275  65.8644  39.9551 0000869 226.2990 119.6831  2.13104296 91354
COSMOS 2432 (719)       
1 32276U 07052B   19203.20228774 -.00000041  00000-0  10000-3 0  9991
2 32276  65.8767  40.0527 0010065 341.9204  32.0235  2.13103694 91356
COSMOS 2434 (721)       
1 32393U 07065A   19202.64806486 -.00000007  00000-0  00000-0 0  9992
2 32393  64.7045 277.8084 0003583 130.1393 115.0321  2.13103020 90041
COSMOS 2436 (723)       
1 32395U 07065C   19202.58172939 -.00000007  00000-0  10000-3 0  9990
2 32395  64.7158 277.8655 0014686 357.1630 249.5711  2.13104387 89976
COSMOS 2456 (730)       
1 36111U 09070A   19203.39108372  .00000051  00000-0  00000+0 0  9991
2 36111  64.2051 157.4208 0006266 305.1279 323.1774  2.13102933 74727
COSMOS 2457 (733)       
1 36112U 09070B   19202.78343544  .00000047  00000-0  00000+0 0  9991
2 36112  64.1867 157.3434 0005035 192.5292  94.5067  2.13101505 74715
COSMOS 2459 (731)       
1 36400U 10007A   19202.79148977 -.00000044  00000-0  10000-3 0  9990
2 36400  65.7670  38.9952 0025800 355.2870 328.1917  2.13102012 73066
COSMOS 2461 (735)       
1 36401U 10007B   19202.99407986 -.00000043  00000-0  10000-3 0  9990
2 36401  65.7656  38.9597 0008943  68.9803 320.4608  2.13102090 73078
COSMOS 2460 (732)       
1 36402U 10007C   19202.45930418 -.00000045  00000-0  10000-3 0  9995
2 36402  65.7578  38.9410 0002093  82.4308 296.5410  2.13101451 73060
COSMOS 2464 (736)       
1 37139U 10041C   19202.84800523 -.00000007  00000-0  00000+0 0  9990
2 37139  64.3069 277.4075 0023731  10.9255 253.6636  2.13100686 69130
COSMOS 2474 (742)       
1 37829U 11055A   19202.64672230  .00000048  00000-0  00000+0 0  9996
2 37829  64.5254 158.3325 0010576 252.4383  21.0904  2.13101817 60703
COSMOS 2476 (744)       
1 37867U 11064A   19203.40674262  .00000053  00000-0  00000+0 0  9996
2 37867  64.5053 158.3590 0020649 243.7536 298.9936  2.13101897 60079
COSMOS 2477 (745)       
1 37868U 11064B   19203.32626600  .00000052  00000-0  00000+0 0  9990
2 37868  64.5146 158.4121 0018443 245.4273  54.2432  2.13101763 60021
COSMOS 2475 (743)       
1 37869U 11064C   19202.78821315  .00000049  00000-0  00000+0 0  9996
2 37869  64.5214 158.4302 0022911 265.8606 298.1431  2.13102079 60029
COSMOS 2485 (747)       
1 39155U 13019A   19202.75536119  .00000049  00000-0  00000+0 0  9990
2 39155  64.6743 158.5768 0021121 239.3871 208.3536  2.13101946 48539
COSMOS 2492 (754)       
1 39620U 14012A   19203.31486773 -.00000041  00000-0  10000-3 0  9992
2 39620  65.6416  38.7442 0013002 335.3523 216.7093  2.13103335 41495
COSMOS 2500 (755)       
1 40001U 14032A   19202.75726179 -.00000044  00000-0  00000-0 0  9992
2 40001  65.5809  38.7009 0005379 187.5489 158.0959  2.13102603 39695
COSMOS 2501 (702K)      
1 40315U 14075A   19202.91998624 -.00000009  00000-0  00000-0 0  9992
2 40315  64.0277 278.4740 0017155 207.1743  60.9868  2.13098729 36104
COSMOS 2514 (751)       
1 41330U 16008A   19203.20422910 -.00000043  00000-0  00000+0 0  9998
2 41330  65.3897  38.6381 0008709 203.5393 306.7573  2.13103307 26873
COSMOS 2516 (753)       
1 41554U 16032A   19203.45883725 -.00000009  00000-0  00000+0 0  9997
2 41554  64.2499 278.4305 0013820 216.6661  19.5259  2.13101675 24481
COSMOS 2522 (752)       
1 42939U 17055A   19202.71649414 -.00000008  00000-0  00000-0 0  9994
2 42939  64.4807 278.5395 0008435 239.7195  13.4695  2.13101860 14222
COSMOS 2527 (756)       
1 43508U 18053A   19202.47424470  .00000047  00000-0  00000+0 0  9993
2 43508  64.8386 158.3645 0008906 243.4332 215.1925  2.13102602  8519
COSMOS 2529 (757)       
1 43687U 18086A   19202.58367369 -.00000008  00000-0  00000-0 0  9991
2 43687  64.6941 278.5739 0010383 264.3552 202.6457  2.13102022  5535
COSMOS 2534 (758)       
1 44299U 19030A   19203.26610111 -.00000008  00000-0  00000+0 0  9992
2 44299  64.7629 278.3383 0013182 283.8600 121.8941  2.13101978  1199
